[{"OBJECT_NAME":"SWAS","OBJECT_ID":"1998-071A","EPOCH":"2026-03-09T12:50:12.826752","MEAN_MOTION":15.08888192,"ECCENTRICITY":0.00040991,"INCLINATION":69.8952,"RA_OF_ASC_NODE":124.3662,"ARG_OF_PERICENTER":14.3215,"MEAN_ANOMALY":345.8065,"EPHEMERIS_TYPE":0,"CLASSIFICATION_TYPE":"U","NORAD_CAT_ID":25560,"ELEMENT_SET_NO":999,"REV_AT_EPOCH":48223,"BSTAR":0.00029986322,"MEAN_MOTION_DOT":4.636e-5,"MEAN_MOTION_DDOT":0},{"OBJECT_NAME":"STARLINK-3576","OBJECT_ID":"2022-022AH","EPOCH":"2026-03-09T04:31:24.254688","MEAN_MOTION":15.08833975,"ECCENTRICITY":0.00014607,"INCLINATION":53.2199,"RA_OF_ASC_NODE":1.5536,"ARG_OF_PERICENTER":93.4769,"MEAN_ANOMALY":266.639,"EPHEMERIS_TYPE":0,"CLASSIFICATION_TYPE":"U","NORAD_CAT_ID":51883,"ELEMENT_SET_NO":999,"REV_AT_EPOCH":22316,"BSTAR":1.2565327e-5,"MEAN_MOTION_DOT":-8.8e-7,"MEAN_MOTION_DDOT":0}]
